{
  "type": "FeatureCollection",
  "features": [
    {
      "type": "Feature",
      "properties": {
        "norad_id": 31307,
        "name": "GALAXY 17 (G-17)",
        "group": "intelsat",
        "lat": 1.9275562173414629,
        "lon": -149.12297380574282,
        "alt_km": 35764.68145886742,
        "timestamp": "2025-12-07T14:37:04.876941+00:00",
        "meta_object_name": "GALAXY 17 (G-17)",
        "meta_object_id": "2007-016B",
        "meta_epoch": "2025-12-06T21:49:17.319072",
        "meta_mean_motion": 1.0027007,
        "meta_eccentricity": 0.00060538,
        "meta_inclination": 2.4847,
        "meta_ra_of_asc_node": 82.3498,
        "meta_arg_of_pericenter": 160.6013,
        "meta_mean_anomaly": 75.3063,
        "meta_ephemeris_type": 0,
        "meta_classification_type": "U",
        "meta_norad_cat_id": 31307,
        "meta_element_set_no": 999,
        "meta_rev_at_epoch": 6787,
        "meta_bstar": 0,
        "meta_mean_motion_dot": -2.01e-06,
        "meta_mean_motion_ddot": 0,
        "tle_line1": "1 31307U 07016B   25340.90922823 -.00000201  00000+0  00000+0 0  9999",
        "tle_line2": "2 31307   2.4847  82.3498 0006053 160.6013  75.3063  1.00270070 67875"
      },
      "geometry": {
        "type": "Point",
        "coordinates": [
          -149.12297380574282,
          1.9275562173414629
        ]
      }
    },
    {
      "type": "Feature",
      "properties": {
        "norad_id": 31862,
        "name": "DIRECTV 10",
        "group": "intelsat",
        "lat": -0.0014062203770592422,
        "lon": -166.89813427492862,
        "alt_km": 35784.58055450913,
        "timestamp": "2025-12-07T14:37:04.876953+00:00",
        "meta_object_name": "DIRECTV 10",
        "meta_object_id": "2007-032A",
        "meta_epoch": "2025-12-06T21:44:10.308768",
        "meta_mean_motion": 1.00270628,
        "meta_eccentricity": 4.439e-05,
        "meta_inclination": 0.0054,
        "meta_ra_of_asc_node": 245.1818,
        "meta_arg_of_pericenter": 317.9855,
        "meta_mean_anomaly": 96.0251,
        "meta_ephemeris_type": 0,
        "meta_classification_type": "U",
        "meta_norad_cat_id": 31862,
        "meta_element_set_no": 999,
        "meta_rev_at_epoch": 4366,
        "meta_bstar": 0,
        "meta_mean_motion_dot": -9.7e-07,
        "meta_mean_motion_ddot": 0,
        "tle_line1": "1 31862U 07032A   25340.90567487 -.00000097  00000+0  00000+0 0  9997",
        "tle_line2": "2 31862   0.0054 245.1818 0000443 317.9855  96.0251  1.00270628 43667"
      },
      "geometry": {
        "type": "Point",
        "coordinates": [
          -166.89813427492862,
          -0.0014062203770592422
        ]
      }
    },
    {
      "type": "Feature",
      "properties": {
        "norad_id": 32253,
        "name": "INTELSAT 11 (IS-11)",
        "group": "intelsat",
        "lat": 2.979054746321563,
        "lon": -175.89950421759275,
        "alt_km": 36113.01325002729,
        "timestamp": "2025-12-07T14:37:04.876965+00:00",
        "meta_object_name": "INTELSAT 11 (IS-11)",
        "meta_object_id": "2007-044B",
        "meta_epoch": "2025-12-06T21:42:32.963616",
        "meta_mean_motion": 0.99047241,
        "meta_eccentricity": 0.00092414,
        "meta_inclination": 3.0644,
        "meta_ra_of_asc_node": 81.0395,
        "meta_arg_of_pericenter": 163.34,
        "meta_mean_anomaly": 48.5761,
        "meta_ephemeris_type": 0,
        "meta_classification_type": "U",
        "meta_norad_cat_id": 32253,
        "meta_element_set_no": 999,
        "meta_rev_at_epoch": 6654,
        "meta_bstar": 0,
        "meta_mean_motion_dot": 5.3e-07,
        "meta_mean_motion_ddot": 0,
        "tle_line1": "1 32253U 07044B   25340.90454819  .00000053  00000+0  00000+0 0  9990",
        "tle_line2": "2 32253   3.0644  81.0395 0009241 163.3400  48.5761  0.99047241 66541"
      },
      "geometry": {
        "type": "Point",
        "coordinates": [
          -175.89950421759275,
          2.979054746321563
        ]
      }
    },
    {
      "type": "Feature",
      "properties": {
        "norad_id": 32388,
        "name": "HORIZONS-2",
        "group": "intelsat",
        "lat": 1.3596622414588968,
        "lon": -137.90575552194483,
        "alt_km": 35771.06586220517,
        "timestamp": "2025-12-07T14:37:04.876977+00:00",
        "meta_object_name": "HORIZONS-2",
        "meta_object_id": "2007-063B",
        "meta_epoch": "2025-12-06T21:52:32.007648",
        "meta_mean_motion": 1.00271059,
        "meta_eccentricity": 0.00050787,
        "meta_inclination": 2.1057,
        "meta_ra_of_asc_node": 83.0214,
        "meta_arg_of_pericenter": 184.5284,
        "meta_mean_anomaly": 62.7481,
        "meta_ephemeris_type": 0,
        "meta_classification_type": "U",
        "meta_norad_cat_id": 32388,
        "meta_element_set_no": 999,
        "meta_rev_at_epoch": 6588,
        "meta_bstar": 0,
        "meta_mean_motion_dot": -2.49e-06,
        "meta_mean_motion_ddot": 0,
        "tle_line1": "1 32388U 07063B   25340.91148157 -.00000249  00000+0  00000+0 0  9994",
        "tle_line2": "2 32388   2.1057  83.0214 0005078 184.5284  62.7481  1.00271059 65881"
      },
      "geometry": {
        "type": "Point",
        "coordinates": [
          -137.90575552194483,
          1.3596622414588968
        ]
      }
    },
    {
      "type": "Feature",
      "properties": {
        "norad_id": 32729,
        "name": "DIRECTV 11",
        "group": "intelsat",
        "lat": 0.0018265603145199698,
        "lon": -163.290534855132,
        "alt_km": 35783.327498515835,
        "timestamp": "2025-12-07T14:37:04.876989+00:00",
        "meta_object_name": "DIRECTV 11",
        "meta_object_id": "2008-013A",
        "meta_epoch": "2025-12-06T11:28:54.626592",
        "meta_mean_motion": 1.00274292,
        "meta_eccentricity": 5.186e-05,
        "meta_inclination": 0.0204,
        "meta_ra_of_asc_node": 155.7645,
        "meta_arg_of_pericenter": 58.6641,
        "meta_mean_anomaly": 294.1227,
        "meta_ephemeris_type": 0,
        "meta_classification_type": "U",
        "meta_norad_cat_id": 32729,
        "meta_element_set_no": 999,
        "meta_rev_at_epoch": 4366,
        "meta_bstar": 0,
        "meta_mean_motion_dot": -1.19e-06,
        "meta_mean_motion_ddot": 0,
        "tle_line1": "1 32729U 08013A   25340.47841003 -.00000119  00000+0  00000+0 0  9996",
        "tle_line2": "2 32729   0.0204 155.7645 0000518  58.6641 294.1227  1.00274292 43661"
      },
      "geometry": {
        "type": "Point",
        "coordinates": [
          -163.290534855132,
          0.0018265603145199698
        ]
      }
    },
    {
      "type": "Feature",
      "properties": {
        "norad_id": 32951,
        "name": "GALAXY 18 (G-18)",
        "group": "intelsat",
        "lat": 0.010391069386728968,
        "lon": 172.84108769724526,
        "alt_km": 35785.46362584928,
        "timestamp": "2025-12-07T14:37:04.877000+00:00",
        "meta_object_name": "GALAXY 18 (G-18)",
        "meta_object_id": "2008-024A",
        "meta_epoch": "2025-12-06T14:47:35.598336",
        "meta_mean_motion": 1.00269923,
        "meta_eccentricity": 0.00033187,
        "meta_inclination": 0.0164,
        "meta_ra_of_asc_node": 45.319,
        "meta_arg_of_pericenter": 213.1303,
        "meta_mean_anomaly": 276.0929,
        "meta_ephemeris_type": 0,
        "meta_classification_type": "U",
        "meta_norad_cat_id": 32951,
        "meta_element_set_no": 999,
        "meta_rev_at_epoch": 4392,
        "meta_bstar": 0,
        "meta_mean_motion_dot": 3.2e-07,
        "meta_mean_motion_ddot": 0,
        "tle_line1": "1 32951U 08024A   25340.61638424  .00000032  00000+0  00000+0 0  9995",
        "tle_line2": "2 32951   0.0164  45.3190 0003318 213.1303 276.0929  1.00269923 43928"
      },
      "geometry": {
        "type": "Point",
        "coordinates": [
          172.84108769724526,
          0.010391069386728968
        ]
      }
    },
    {
      "type": "Feature",
      "properties": {
        "norad_id": 33153,
        "name": "INTELSAT 25 (IS-25)",
        "group": "intelsat",
        "lat": -0.08989320294248213,
        "lon": -95.59817474152678,
        "alt_km": 35763.37817086804,
        "timestamp": "2025-12-07T14:37:04.877012+00:00",
        "meta_object_name": "INTELSAT 25 (IS-25)",
        "meta_object_id": "2008-034A",
        "meta_epoch": "2025-12-06T22:04:38.347392",
        "meta_mean_motion": 1.00270664,
        "meta_eccentricity": 0.0005449,
        "meta_inclination": 2.2121,
        "meta_ra_of_asc_node": 82.7106,
        "meta_arg_of_pericenter": 181.5704,
        "meta_mean_anomaly": 111.3387,
        "meta_ephemeris_type": 0,
        "meta_classification_type": "U",
        "meta_norad_cat_id": 33153,
        "meta_element_set_no": 999,
        "meta_rev_at_epoch": 6376,
        "meta_bstar": 0,
        "meta_mean_motion_dot": -2.19e-06,
        "meta_mean_motion_ddot": 0,
        "tle_line1": "1 33153U 08034A   25340.91988828 -.00000219  00000+0  00000+0 0  9998",
        "tle_line2": "2 33153   2.2121  82.7106 0005449 181.5704 111.3387  1.00270664 63769"
      },
      "geometry": {
        "type": "Point",
        "coordinates": [
          -95.59817474152678,
          -0.08989320294248213
        ]
      }
    }
  ]
}